{"type": "FeatureCollection", "features": [ {"type": "Feature", "properties": {"norad_id": 40115, "name": "WORLDVIEW-3 (WV-3)", "group": "resource", "lat": 77.16892739798598, "lon": -79.52404788743715, "alt_km": 603.5465709106138, "timestamp": "2025-12-16T21:38:56.826848+00:00", "meta": {"OBJECT_NAME": "WORLDVIEW-3 (WV-3)", "OBJECT_ID": "2014-048A", "EPOCH": "2025-12-16T08:16:01.376832", "MEAN_MOTION": 14.85520725, "ECCENTRICITY": 0.00050544, "INCLINATION": 97.8614, "RA_OF_ASC_NODE": 62.5794, "ARG_OF_PERICENTER": 173.0688, "MEAN_ANOMALY": 187.0598, "EPHEMERIS_TYPE": 0, "CLASSIFICATION_TYPE": "U", "NORAD_CAT_ID": 40115, "ELEMENT_SET_NO": 999, "REV_AT_EPOCH": 61477, "BSTAR": 0.00012953657, "MEAN_MOTION_DOT": 1.065e-05, "MEAN_MOTION_DDOT": 0}, "tle": {"line1": "1 40115U 14048A   25350.34446038  .00001065  00000+0  12954-3 0  9990", "line2": "2 40115  97.8614  62.5794 0005054 173.0688 187.0598 14.85520725614770"}}, "geometry": {"type": "Point", "coordinates": [-79.52404788743715, 77.16892739798598]}}, {"type": "Feature", "properties": {"norad_id": 40118, "name": "GAOFEN-2", "group": "resource", "lat": -24.247726200988193, "lon": -133.57181570228207, "alt_km": 634.3288639176944, "timestamp": "2025-12-16T21:38:56.826859+00:00", "meta": {"OBJECT_NAME": "GAOFEN-2", "OBJECT_ID": "2014-049A", "EPOCH": "2025-12-16T07:45:15.242976", "MEAN_MOTION": 14.80615761, "ECCENTRICITY": 0.00086457, "INCLINATION": 98.0385, "RA_OF_ASC_NODE": 49.4978, "ARG_OF_PERICENTER": 102.9655, "MEAN_ANOMALY": 257.2523, "EPHEMERIS_TYPE": 0, "CLASSIFICATION_TYPE": "U", "NORAD_CAT_ID": 40118, "ELEMENT_SET_NO": 999, "REV_AT_EPOCH": 61217, "BSTAR": 8.8991641e-05, "MEAN_MOTION_DOT": 6.3e-06, "MEAN_MOTION_DDOT": 0}, "tle": {"line1": "1 40118U 14049A   25350.32309309  .00000630  00000+0  88992-4 0  9994", "line2": "2 40118  98.0385  49.4978 0008645 102.9655 257.2523 14.80615761612173"}}, "geometry": {"type": "Point", "coordinates": [-133.57181570228207, -24.247726200988193]}}, {"type": "Feature", "properties": {"norad_id": 40143, "name": "YAOGAN-21", "group": "resource", "lat": 82.46623438337178, "lon": -73.66987184153237, "alt_km": 484.32339633402717, "timestamp": "2025-12-16T21:38:56.826870+00:00", "meta": {"OBJECT_NAME": "YAOGAN-21", "OBJECT_ID": "2014-053A", "EPOCH": "2025-12-16T08:38:14.770752", "MEAN_MOTION": 15.2371699, "ECCENTRICITY": 0.00094476, "INCLINATION": 97.1758, "RA_OF_ASC_NODE": 33.5158, "ARG_OF_PERICENTER": 30.1392, "MEAN_ANOMALY": 330.0387, "EPHEMERIS_TYPE": 0, "CLASSIFICATION_TYPE": "U", "NORAD_CAT_ID": 40143, "ELEMENT_SET_NO": 999, "REV_AT_EPOCH": 62709, "BSTAR": 0.00015672274, "MEAN_MOTION_DOT": 3.7e-05, "MEAN_MOTION_DDOT": 0}, "tle": {"line1": "1 40143U 14053A   25350.35989318  .00003700  00000+0  15672-3 0  9999", "line2": "2 40143  97.1758  33.5158 0009447  30.1392 330.0387 15.23716990627099"}}, "geometry": {"type": "Point", "coordinates": [-73.66987184153237, 82.46623438337178]}}, {"type": "Feature", "properties": {"norad_id": 40275, "name": "YAOGAN-22", "group": "resource", "lat": 51.702433227096485, "lon": 120.47099496012106, "alt_km": 1201.4285521477368, "timestamp": "2025-12-16T21:38:56.826880+00:00", "meta": {"OBJECT_NAME": "YAOGAN-22", "OBJECT_ID": "2014-063A", "EPOCH": "2025-12-16T08:36:13.104864", "MEAN_MOTION": 13.15522761, "ECCENTRICITY": 0.00059793, "INCLINATION": 100.7422, "RA_OF_ASC_NODE": 133.829, "ARG_OF_PERICENTER": 239.3709, "MEAN_ANOMALY": 120.6813, "EPHEMERIS_TYPE": 0, "CLASSIFICATION_TYPE": "U", "NORAD_CAT_ID": 40275, "ELEMENT_SET_NO": 999, "REV_AT_EPOCH": 53577, "BSTAR": 7.5628252e-05, "MEAN_MOTION_DOT": -1.8e-07, "MEAN_MOTION_DDOT": 0}, "tle": {"line1": "1 40275U 14063A   25350.35848501 -.00000018  00000+0  75628-4 0  9992", "line2": "2 40275 100.7422 133.8290 0005979 239.3709 120.6813 13.15522761535776"}}, "geometry": {"type": "Point", "coordinates": [120.47099496012106, 51.702433227096485]}}, {"type": "Feature", "properties": {"norad_id": 40298, "name": "ASNARO", "group": "resource", "lat": 75.79566772502591, "lon": 36.01535438068734, "alt_km": 496.7273787957656, "timestamp": "2025-12-16T21:38:56.826895+00:00", "meta": {"OBJECT_NAME": "ASNARO", "OBJECT_ID": "2014-070A", "EPOCH": "2025-12-16T08:39:53.461152", "MEAN_MOTION": 15.19573717, "ECCENTRICITY": 0.00055674, "INCLINATION": 97.3651, "RA_OF_ASC_NODE": 66.2191, "ARG_OF_PERICENTER": 112.8827, "MEAN_ANOMALY": 247.2996, "EPHEMERIS_TYPE": 0, "CLASSIFICATION_TYPE": "U", "NORAD_CAT_ID": 40298, "ELEMENT_SET_NO": 999, "REV_AT_EPOCH": 61624, "BSTAR": 0.00038678467, "MEAN_MOTION_DOT": 8.168e-05, "MEAN_MOTION_DDOT": 0}, "tle": {"line1": "1 40298U 14070A   25350.36103543  .00008168  00000+0  38678-3 0  9992", "line2": "2 40298  97.3651  66.2191 0005567 112.8827 247.2996 15.19573717616247"}}, "geometry": {"type": "Point", "coordinates": [36.01535438068734, 75.79566772502591]}}, {"type": "Feature", "properties": {"norad_id": 40310, "name": "YAOGAN-24", "group": "resource", "lat": 57.29809816548889, "lon": -45.132522674176116, "alt_km": 625.4378943811225, "timestamp": "2025-12-16T21:38:56.826906+00:00", "meta": {"OBJECT_NAME": "YAOGAN-24", "OBJECT_ID": "2014-072A", "EPOCH": "2025-12-16T08:05:08.992032", "MEAN_MOTION": 14.7618641, "ECCENTRICITY": 0.00149027, "INCLINATION": 98.1215, "RA_OF_ASC_NODE": 121.4485, "ARG_OF_PERICENTER": 127.1368, "MEAN_ANOMALY": 233.1205, "EPHEMERIS_TYPE": 0, "CLASSIFICATION_TYPE": "U", "NORAD_CAT_ID": 40310, "ELEMENT_SET_NO": 999, "REV_AT_EPOCH": 59674, "BSTAR": 0.00016300769, "MEAN_MOTION_DOT": 1.076e-05, "MEAN_MOTION_DDOT": 0}, "tle": {"line1": "1 40310U 14072A   25350.33690963  .00001076  00000+0  16301-3 0  9993", "line2": "2 40310  98.1215 121.4485 0014902 127.1368 233.1205 14.76186410596740"}}, "geometry": {"type": "Point", "coordinates": [-45.132522674176116, 57.29809816548889]}}, {"type": "Feature", "properties": {"norad_id": 40336, "name": "CBERS 4", "group": "resource", "lat": -25.987670174659407, "lon": 52.872651170028156, "alt_km": 779.8029566474861, "timestamp": "2025-12-16T21:38:56.826916+00:00", "meta": {"OBJECT_NAME": "CBERS 4", "OBJECT_ID": "2014-079A", "EPOCH": "2025-12-16T08:23:19.080960", "MEAN_MOTION": 14.35519212, "ECCENTRICITY": 0.00017097, "INCLINATION": 98.331, "RA_OF_ASC_NODE": 48.243, "ARG_OF_PERICENTER": 107.9723, "MEAN_ANOMALY": 252.1649, "EPHEMERIS_TYPE": 0, "CLASSIFICATION_TYPE": "U", "NORAD_CAT_ID": 40336, "ELEMENT_SET_NO": 999, "REV_AT_EPOCH": 57772, "BSTAR": 4.9094567e-05, "MEAN_MOTION_DOT": 9.9e-07, "MEAN_MOTION_DDOT": 0}, "tle": {"line1": "1 40336U 14079A   25350.34952640  .00000099  00000+0  49095-4 0  9993", "line2": "2 40336  98.3310  48.2430 0001709 107.9723 252.1649 14.35519212577729"}}, "geometry": {"type": "Point", "coordinates": [52.872651170028156, -25.987670174659407]}}, {"type": "Feature", "properties": {"norad_id": 40362, "name": "YAOGAN-26", "group": "resource", "lat": 41.03252388029944, "lon": -14.76695174229909, "alt_km": 440.9822676433987, "timestamp": "2025-12-16T21:38:56.826927+00:00", "meta": {"OBJECT_NAME": "YAOGAN-26", "OBJECT_ID": "2014-088A", "EPOCH": "2025-12-16T05:52:10.856640", "MEAN_MOTION": 15.39426625, "ECCENTRICITY": 0.00057576, "INCLINATION": 97.0639, "RA_OF_ASC_NODE": 350.7942, "ARG_OF_PERICENTER": 19.8864, "MEAN_ANOMALY": 340.2605, "EPHEMERIS_TYPE": 0, "CLASSIFICATION_TYPE": "U", "NORAD_CAT_ID": 40362, "ELEMENT_SET_NO": 999, "REV_AT_EPOCH": 60948, "BSTAR": 0.00037665934, "MEAN_MOTION_DOT": 0.00014687, "MEAN_MOTION_DDOT": 0}, "tle": {"line1": "1 40362U 14088A   25350.24457010  .00014687  00000+0  37666-3 0  9990", "line2": "2 40362  97.0639 350.7942 0005757  19.8864 340.2605 15.39426625609481"}}, "geometry": {"type": "Point", "coordinates": [-14.76695174229909, 41.03252388029944]}}, {"type": "Feature", "properties": {"norad_id": 40376, "name": "SMAP", "group": "resource", "lat": -52.33567428928506, "lon": 164.89483904331524, "alt_km": 690.0337647494898, "timestamp": "2025-12-16T21:38:56.826938+00:00", "meta": {"OBJECT_NAME": "SMAP", "OBJECT_ID": "2015-003A", "EPOCH": "2025-12-16T07:27:32.947200", "MEAN_MOTION": 14.63349671, "ECCENTRICITY": 0.00012125, "INCLINATION": 98.129, "RA_OF_ASC_NODE": 354.9832, "ARG_OF_PERICENTER": 90.9327, "MEAN_ANOMALY": 269.2014, "EPHEMERIS_TYPE": 0, "CLASSIFICATION_TYPE": "U", "NORAD_CAT_ID": 40376, "ELEMENT_SET_NO": 999, "REV_AT_EPOCH": 58087, "BSTAR": 0.00011481862, "MEAN_MOTION_DOT": 5.46e-06, "MEAN_MOTION_DDOT": 0}, "tle": {"line1": "1 40376U 15003A   25350.31079800  .00000546  00000+0  11482-3 0  9995", "line2": "2 40376  98.1290 354.9832 0001212  90.9327 269.2014 14.63349671580877"}}, "geometry": {"type": "Point", "coordinates": [164.89483904331524, -52.33567428928506]}}, {"type": "Feature", "properties": {"norad_id": 40536, "name": "KOMPSAT-3A", "group": "resource", "lat": 50.946236785243656, "lon": -44.09305259253464, "alt_km": 427.90268912538886, "timestamp": "2025-12-16T21:38:56.826949+00:00", "meta": {"OBJECT_NAME": "KOMPSAT-3A", "OBJECT_ID": "2015-014A", "EPOCH": "2025-12-16T08:59:01.896000", "MEAN_MOTION": 15.44079073, "ECCENTRICITY": 0.00051818, "INCLINATION": 97.6783, "RA_OF_ASC_NODE": 324.922, "ARG_OF_PERICENTER": 118.522, "MEAN_ANOMALY": 241.655, "EPHEMERIS_TYPE": 0, "CLASSIFICATION_TYPE": "U", "NORAD_CAT_ID": 40536, "ELEMENT_SET_NO": 999, "REV_AT_EPOCH": 59351, "BSTAR": 0.00033169248, "MEAN_MOTION_DOT": 0.00015081, "MEAN_MOTION_DDOT": 0}, "tle": {"line1": "1 40536U 15014A   25350.37432750  .00015081  00000+0  33169-3 0  9994", "line2": "2 40536  97.6783 324.9220 0005181 118.5220 241.6550 15.44079073593512"}}, "geometry": {"type": "Point", "coordinates": [-44.09305259253464, 50.946236785243656]}}]}